NORAD_CAT_ID,OBJECT_NAME,OBJECT_TYPE,EPOCH,MEAN_MOTION,ECCENTRICITY,INCLINATION,RA_OF_ASC_NODE,ARG_OF_PERICENTER,MEAN_ANOMALY,BSTAR,MEAN_MOTION_DOT,MEAN_MOTION_DDOT,TLE_LINE0,TLE_LINE1,TLE_LINE2,SEMIMAJOR_AXIS,PERIOD,APOGEE,PERIGEE,DECAYED
49771.0,STARLINK-3201,PAYLOAD,2022-10-12 02:00:55,15.08824576,0.0001968,53.2173,326.3714,40.9333,319.1806,3.1168e-06,-2.39e-06,0.0,0 STARLINK-3201,1 49771U 21115AZ  22285.08397329 -.00000239  00000-0  31168-5 0  9997,2 49771  53.2173 326.3714 0001968  40.9333 319.1806 15.08824576 48896,6917.928000000001,95.439,541.154,538.431,0.0
49771.0,STARLINK-3201,PAYLOAD,2022-10-12 11:33:13,15.08833015,0.0001992,53.2172,324.5876,41.7153,318.3991,8.613200000000001e-05,1.083e-05,0.0,0 STARLINK-3201,1 49771U 21115AZ  22285.48141022  .00001083  00000-0  86132-4 0  9995,2 49771  53.2172 324.5876 0001992  41.7153 318.3991 15.08833015 48951,6917.901999999999,95.438,541.145,538.389,0.0
49771.0,STARLINK-3201,PAYLOAD,2022-10-12 13:08:37,15.08827139,0.0002145,53.2169,324.291,35.2294,324.884,0.00011285,1.508e-05,0.0,0 STARLINK-3201,1 49771U 21115AZ  22285.54765470  .00001508  00000-0  11285-3 0  9999,2 49771  53.2169 324.2910 0002145  35.2294 324.8840 15.08827139 47851,6917.92,95.438,541.269,538.3009999999998,0.0
49771.0,STARLINK-3201,PAYLOAD,2022-10-13 11:24:01,15.08826125,0.0002017,53.2172,320.1284,42.4142,317.7005,0.00010756,1.423e-05,0.0,0 STARLINK-3201,1 49771U 21115AZ  22286.47502230  .00001423  00000-0  10756-3 0  9993,2 49771  53.2172 320.1284 0002017  42.4142 317.7005 15.08826125 47997,6917.9230000000025,95.438,541.183,538.3919999999998,0.0
49771.0,STARLINK-3201,PAYLOAD,2022-10-13 19:20:57,15.08830041,0.0001945,53.2171,318.6417,45.6043,314.5108,0.00019628,2.836e-05,0.0,0 STARLINK-3201,1 49771U 21115AZ  22286.80621996  .00002836  00000-0  19628-3 0  9997,2 49771  53.2171 318.6417 0001945  45.6043 314.5108 15.08830041 49151,6917.911,95.438,541.121,538.43,0.0
49771.0,STARLINK-3201,PAYLOAD,2022-10-14 11:14:48,15.08842664,0.0002035,53.2167,315.6670000000001,44.7642,315.3514,7.6716e-05,9.33e-06,0.0,0 STARLINK-3201,1 49771U 21115AZ  22287.46861695  .00000933  00000-0  76716-4 0  9990,2 49771  53.2167 315.6670 0002035  44.7642 315.3514 15.08842664 49255,6917.871999999999,95.437,541.145,538.3290000000002,0.0
49771.0,STARLINK-3201,PAYLOAD,2022-10-14 19:11:43,15.08848231,0.0001958,53.2165,314.18,43.2277,316.8868,0.00015684,2.209e-05,0.0,0 STARLINK-3201,1 49771U 21115AZ  22287.79981015  .00002209  00000-0  15684-3 0  9999,2 49771  53.2165 314.1800 0001958  43.2277 316.8868 15.08848231 49303,6917.855,95.437,541.075,538.366,0.0
49771.0,STARLINK-3201,PAYLOAD,2022-10-15 07:54:48,15.08844678,0.0001948,53.2167,311.8006,44.3127,315.8021,0.0001147999999999,1.5399999999999998e-05,0.0,0 STARLINK-3201,1 49771U 21115AZ  22288.32973143  .00001540  00000-0  11480-3 0  9999,2 49771  53.2167 311.8006 0001948  44.3127 315.8021 15.08844678 49381,6917.866,95.437,541.0790000000002,538.383,0.0
49771.0,STARLINK-3201,PAYLOAD,2022-10-15 19:02:30,15.08844703,0.000202,53.2173,309.7182,44.1158,315.9995,1.0758e-05,-1.17e-06,0.0,0 STARLINK-3201,1 49771U 21115AZ  22288.79341279 -.00000117  00000-0  10758-4 0  9997,2 49771  53.2173 309.7182 0002020  44.1158 315.9995 15.08844703 48348,6917.866,95.437,541.128,538.3340000000002,0.0
49771.0,STARLINK-3201,PAYLOAD,2022-10-16 02:59:26,15.08840313,0.000193,53.2173,308.2313,43.9613,316.1532,-2.1606e-06,-3.23e-06,0.0,0 STARLINK-3201,1 49771U 21115AZ  22289.12461504 -.00000323  00000-0 -21606-5 0  9994,2 49771  53.2173 308.2313 0001930  43.9613 316.1532 15.08840313 49502,6917.879,95.438,541.08,538.409,0.0
49771.0,STARLINK-3201,PAYLOAD,2022-10-16 07:45:36,15.08837903,0.0001968,53.2171,307.3394,43.756,316.3587,-2.9593000000000013e-05,-7.59e-06,0.0,0 STARLINK-3201,1 49771U 21115AZ  22289.32333714 -.00000759  00000-0 -29593-4 0  9992,2 49771  53.2171 307.3394 0001968  43.7560 316.3587 15.08837903 48422,6917.887,95.438,541.113,538.39,0.0
49771.0,STARLINK-3201,PAYLOAD,2022-10-16 18:53:18,15.08834595,0.0002005,53.2171,305.2578,43.5361,316.5789,1.2789e-05,-8.5e-07,0.0,0 STARLINK-3201,1 49771U 21115AZ  22289.78701821 -.00000085  00000-0  12789-4 0  9990,2 49771  53.2171 305.2578 0002005  43.5361 316.5789 15.08834595 48490,6917.897,95.438,541.149,538.375,0.0
49771.0,STARLINK-3201,PAYLOAD,2022-10-17 07:36:23,15.08841038,0.0001935,53.2167,302.879,42.117,317.997,-4.5008e-05,-1.004e-05,0.0,0 STARLINK-3201,1 49771U 21115AZ  22290.31693410 -.00001004  00000-0 -45008-4 0  9998,2 49771  53.2167 302.8790 0001935  42.1170 317.9970 15.08841038 49687,6917.877,95.437,541.081,538.404,0.0
49771.0,STARLINK-3201,PAYLOAD,2022-10-18 10:37:56,15.08836496,0.0001982,53.2167,297.8239,38.1819,321.9313,7.0282e-05,8.3e-06,0.0,0 STARLINK-3201,1 49771U 21115AZ  22291.44301341  .00000830  00000-0  70282-4 0  9998,2 49771  53.2167 297.8239 0001982  38.1819 321.9313 15.08836496 49852,6917.891,95.438,541.127,538.385,0.0
49771.0,STARLINK-3201,PAYLOAD,2022-10-18 16:59:29,15.08827524,0.0002000999999999,53.2166,296.6353,35.824,324.2886,-3.932e-05,-9.14e-06,0.0,0 STARLINK-3201,1 49771U 21115AZ  22291.70798467 -.00000914  00000-0 -39320-4 0  9999,2 49771  53.2166 296.6353 0002001  35.8240 324.2886 15.08827524 49897,6917.919,95.438,541.168,538.399,0.0
49771.0,STARLINK-3201,PAYLOAD,2022-10-19 07:17:57,15.08835007,0.000207,53.2164,293.9585,37.5925,322.5212,3.3545e-05,2.46e-06,0.0,0 STARLINK-3201,1 49771U 21115AZ  22292.30414096  .00000246  00000-0  33545-4 0  9998,2 49771  53.2164 293.9585 0002070  37.5925 322.5212 15.08835007 49986,6917.896,95.438,541.193,538.3290000000002,0.0
49771.0,STARLINK-3201,PAYLOAD,2022-10-19 08:53:20,15.08837848,0.0002076,53.2166,293.6613,38.0818,322.0321,5.8436e-05,6.42e-06,0.0,0 STARLINK-3201,1 49771U 21115AZ  22292.37037860  .00000642  00000-0  58436-4 0  9991,2 49771  53.2166 293.6613 0002076  38.0818 322.0321 15.08837848 48889,6917.887,95.438,541.188,538.316,0.0
49771.0,STARLINK-3201,PAYLOAD,2022-10-19 16:50:16,15.08841795,0.0002099,53.2168,292.1744,40.2793,319.8354,4.4985e-05,4.28e-06,0.0,0 STARLINK-3201,1 49771U 21115AZ  22292.70157674  .00000428  00000-0  44985-4 0  9990,2 49771  53.2168 292.1744 0002099  40.2793 319.8354 15.08841795 50049,6917.875,95.437,541.192,538.288,0.0
49771.0,STARLINK-3201,PAYLOAD,2022-10-20 05:33:21,15.08834798,0.0001891,53.2174,289.7954,50.7344,309.3816,3.2228000000000004e-05,2.25e-06,0.0,0 STARLINK-3201,1 49771U 21115AZ  22293.23150243  .00000225  00000-0  32228-4 0  9996,2 49771  53.2174 289.7954 0001891  50.7344 309.3816 15.08834798 50129,6917.896,95.438,541.069,538.453,0.0
49771.0,STARLINK-3201,PAYLOAD,2022-10-20 08:44:07,15.08836566,0.0001978,53.2172,289.2009,46.3997,313.7159,5.0429e-05,5.14e-06,0.0,0 STARLINK-3201,1 49771U 21115AZ  22293.36398147  .00000514  00000-0  50429-4 0  9991,2 49771  53.2172 289.2009 0001978  46.3997 313.7159 15.08836566 49036,6917.891,95.438,541.124,538.388,0.0
49771.0,STARLINK-3201,PAYLOAD,2022-10-20 16:41:03,15.08842843,0.0002016,53.2174,287.7141,46.3841,313.7318,8.0915e-05,1e-05,0.0,0 STARLINK-3201,1 49771U 21115AZ  22293.69517687  .00001000  00000-0  80915-4 0  9993,2 49771  53.2174 287.7141 0002016  46.3841 313.7318 15.08842843 49087,6917.871999999999,95.437,541.131,538.342,0.0
49771.0,STARLINK-3201,PAYLOAD,2022-10-21 03:48:45,15.08836693,0.0002013,53.218,285.6335,52.9478,307.1698,5.2624e-05,5.49e-06,0.0,0 STARLINK-3201,1 49771U 21115AZ  22294.15886332  .00000549  00000-0  52624-4 0  9994,2 49771  53.2180 285.6335 0002013  52.9478 307.1698 15.08836693 50268,6917.89,95.438,541.148,538.363,0.0
49771.0,STARLINK-3201,PAYLOAD,2022-10-21 11:45:41,15.08838476,0.0002061999999999,53.2172,284.1456,49.3784,310.7388,4.4511e-05,4.2e-06,0.0,0 STARLINK-3201,1 49771U 21115AZ  22294.49006272  .00000420  00000-0  44511-4 0  9992,2 49771  53.2172 284.1456 0002062  49.3784 310.7388 15.08838476 49200,6917.885,95.438,541.177,538.3240000000002,0.0
49771.0,STARLINK-3201,PAYLOAD,2022-10-21 16:31:50,15.08842723,0.0001927,53.2172,283.2531,51.265,308.8514,5.7911e-05,6.34e-06,0.0,0 STARLINK-3201,1 49771U 21115AZ  22294.68877905  .00000634  00000-0  57911-4 0  9997,2 49771  53.2172 283.2531 0001927  51.2650 308.8514 15.08842723 49239,6917.871999999999,95.437,541.07,538.404,0.0
49771.0,STARLINK-3201,PAYLOAD,2022-10-22 11:36:28,15.08840236,0.0002129,53.2176,279.684,44.2632,315.853,3.0436e-05,1.96e-06,0.0,0 STARLINK-3201,1 49771U 21115AZ  22295.48366232  .00000196  00000-0  30436-4 0  9998,2 49771  53.2176 279.6840 0002129  44.2632 315.8530 15.08840236 50462,6917.88,95.438,541.217,538.2719999999998,0.0
49771.0,STARLINK-3201,PAYLOAD,2022-10-22 16:22:37,15.08846227,0.0002133999999999,53.2181,278.7918,44.5711,315.5452,4.4388e-05,4.18e-06,0.0,0 STARLINK-3201,1 49771U 21115AZ  22295.68237760  .00000418  00000-0  44388-4 0  9991,2 49771  53.2181 278.7918 0002134  44.5711 315.5452 15.08846227 49386,6917.861,95.437,541.203,538.25,0.0
49771.0,STARLINK-3201,PAYLOAD,2022-10-23 05:05:41,15.08850594,0.0001992,53.218,276.413,41.3652,318.7491,0.00010844,1.439e-05,0.0,0 STARLINK-3201,1 49771U 21115AZ  22296.21229049  .00001439  00000-0  10844-3 0  9995,2 49771  53.2180 276.4130 0001992  41.3652 318.7491 15.08850594 50579,6917.848000000001,95.437,541.091,538.335,0.0
49771.0,STARLINK-3201,PAYLOAD,2022-10-23 08:16:28,15.08846973,0.0001984,53.2177,275.8186,40.5774,319.5366,7.323e-05,8.78e-06,0.0,0 STARLINK-3201,1 49771U 21115AZ  22296.34477320  .00000878  00000-0  73230-4 0  9991,2 49771  53.2177 275.8186 0001984  40.5774 319.5366 15.08846973 49480,6917.859,95.437,541.097,538.352,0.0
49771.0,STARLINK-3201,PAYLOAD,2022-10-23 16:13:23,15.08849469,0.0001996999999999,53.2178,274.3319,40.5587,319.5554,0.00010314,1.354e-05,0.0,0 STARLINK-3201,1 49771U 21115AZ  22296.67596901  .00001354  00000-0  10314-3 0  9997,2 49771  53.2178 274.3319 0001997  40.5587 319.5554 15.08849469 49537,6917.851,95.437,541.0980000000002,538.335,0.0
